BEIDOU-3 M2             
1 43002U 17069B   26066.58695443 -.00000034  00000+0  00000+0 0  9992
2 43002  56.6029  66.4651 0009792 329.2108  30.7460  1.86230719 56704
BEIDOU-3 M7             
1 43107U 18003A   26065.25503818 -.00000069  00000+0  00000+0 0  9992
2 43107  54.4191 305.9051 0004744  71.1404 288.9649  1.86232356 55439
BEIDOU-3 M8             
1 43108U 18003B   26065.73756449 -.00000069  00000+0  00000+0 0  9996
2 43108  54.4113 305.8708 0002951 295.0434  64.9788  1.86230889 55457
BEIDOU-3 M4             
1 43207U 18018A   26065.64280483 -.00000035  00000+0  00000+0 0  9995
2 43207  56.5621  66.5276 0006868 350.4806   9.5225  1.86231211 54837
BEIDOU-3 M3             
1 43208U 18018B   26065.17230069 -.00000035  00000+0  00000+0 0  9999
2 43208  56.5611  66.5473 0009939 319.6399  40.3037  1.86231186 54826
BEIDOU-3 M9             
1 43245U 18029A   26063.77860799 -.00000062  00000+0  00000+0 0  9995
2 43245  54.2878 303.6009 0000937  21.7845 338.2765  1.86228195 53959
BEIDOU-3 M10            
1 43246U 18029B   26065.86131185 -.00000066  00000+0  00000+0 0  9992
2 43246  54.2835 303.5552 0005193  25.1778 334.8994  1.86228989 53976
BEIDOU-2 IGSO-7         
1 43539U 18057A   26056.73984515 -.00000161  00000+0  00000+0 0  9993
2 43539  55.1859 164.0342 0099962 236.5988 133.5173  1.00284731 28015
BEIDOU-3 M5             
1 43581U 18062A   26065.01153201  .00000011  00000+0  00000+0 0  9990
2 43581  54.0879 185.8116 0002277 307.0485  52.9036  1.86228711 51716
BEIDOU-3 M6             
1 43582U 18062B   26065.41141788  .00000014  00000+0  00000+0 0  9995
2 43582  54.0875 185.7868 0006178  43.6988 316.3254  1.86227738 51729
BEIDOU-3 M12            
1 43602U 18067A   26065.88680434  .00000015  00000+0  00000+0 0  9991
2 43602  54.1822 184.5089 0008544  39.5738 320.4688  1.86227805 51219
BEIDOU-3 M11            
1 43603U 18067B   26065.48459603  .00000014  00000+0  00000+0 0  9999
2 43603  54.1797 184.4865 0004937  32.9880 327.0209  1.86227201 51233
BEIDOU-3 M13            
1 43622U 18072A   26063.82956810 -.00000029  00000+0  00000+0 0  9991
2 43622  56.5333  66.1018 0008916 307.8246  52.1164  1.86230808 50718
BEIDOU-3 M14            
1 43623U 18072B   26063.69502611 -.00000028  00000+0  00000+0 0  9992
2 43623  56.5350  66.1003 0006376 328.8150  31.1695  1.86230841 50709
BEIDOU-3 M16            
1 43647U 18078A   26065.99967373 -.00000066  00000+0  00000+0 0  9991
2 43647  54.1822 303.5696 0008467  31.5252 328.5770  1.86232416 50250
BEIDOU-3 M15            
1 43648U 18078B   26062.37035185 -.00000055  00000+0  00000+0 0  9996
2 43648  54.1808 303.6975 0005342  38.8897 321.2084  1.86232017 50200
BEIDOU-3 G1             
1 43683U 18085A   26066.44836589 -.00000280  00000+0  00000+0 0  9992
2 43683   2.8182 100.2970 0001615  13.9526 352.3140  1.00267773 27049
